{
  "type": "FeatureCollection",
  "crs": {
    "type": "name",
    "properties": {
      "name": "EPSG:4326"
    }
  },
  "features": [
    {
      "type": "Feature",
      "properties": {
        "name": "ignition_anchor",
        "fire": "Holiday Farm Fire",
        "county": "Lane County",
        "lat": 44.172,
        "lon": -122.231,
        "buffer_m": 0,
        "note": "Approximate ignition anchor \u2014 not a certified exact point"
      },
      "geometry": {
        "type": "Point",
        "coordinates": [
          -122.231,
          44.172
        ]
      }
    },
    {
      "type": "Feature",
      "properties": {
        "name": "aoi_1000m",
        "fire": "Holiday Farm Fire",
        "county": "Lane County",
        "buffer_m": 1000,
        "buffer_km": 1.0
      },
      "geometry": {
        "type": "Polygon",
        "coordinates": [
          [
            [
              -122.21849210785118,
              44.171915116389016
            ],
            [
              -122.2185639885254,
              44.17103313893927
            ],
            [
              -122.21875562866377,
              44.17016047905007
            ],
            [
              -122.2190651775745,
              44.16930554028605
            ],
            [
              -122.21948964947147,
              44.16847655520715
            ],
            [
              -122.22002495240775,
              44.16768150612182
            ],
            [
              -122.22066592783906,
              44.16692804826192
            ],
            [
              -122.22140640042926,
              44.16622343611725
            ],
            [
              -122.222239237614,
              44.16557445363697
            ],
            [
              -122.2231564183454,
              44.16498734896767
            ],
            [
              -122.22414911035291,
              44.16446777435354
            ],
            [
              -122.22520775517692,
              44.16402073177499
            ],
            [
              -122.22632216015613,
              44.16365052484626
            ],
            [
              -122.2274815964861,
              44.16336071743252
            ],
            [
              -122.22867490240787,
              44.16315409938291
            ],
            [
              -122.22989059053896,
              44.16303265970705
            ],
            [
              -122.23111695831837,
              44.16299756745182
            ],
            [
              -122.23234220050975,
              44.16304916046141
            ],
            [
              -122.23355452268672,
              44.16318694212797
            ],
            [
              -122.23474225461506,
              44.163409586164335
            ],
            [
              -122.23589396244786,
              44.16371494935269
            ],
            [
              -122.23699855866089,
              44.16410009214801
            ],
            [
              -122.23804540867576,
              44.16456130693871
            ],
            [
              -122.23902443315046,
              44.165094153694355
            ],
            [
              -122.23992620495687,
              44.16569350265971
            ],
            [
              -122.24074203991485,
              44.16635358368587
            ],
            [
              -122.241464080411,
              44.167068041726736
            ],
            [
              -122.24208537109773,
              44.167829997968724
            ],
            [
              -122.24259992594241,
              44.168632116008084
            ],
            [
              -122.24300278597823,
              44.16946667244098
            ],
            [
              -122.24329006719697,
              44.170325631189094
            ],
            [
              -122.24345899811728,
              44.171200720847
            ],
            [
              -122.24350794666005,
              44.172083514308035
            ],
            [
              -122.24343643606527,
              44.17296550990338
            ],
            [
              -122.24324514968959,
              44.17383821327316
            ],
            [
              -122.24293592462985,
              44.174693219181854
            ],
            [
              -122.24251173422678,
              44.175522292489184
            ],
            [
              -122.24197665960966,
              44.17631744749613
            ],
            [
              -122.24133585054861,
              44.177071024900314
            ],
            [
              -122.24059547598623,
              44.17777576561796
            ],
            [
              -122.23976266471968,
              44.178424880758854
            ],
            [
              -122.23884543680089,
              44.17901211707838
            ],
            [
              -122.23785262631374,
              44.17953181727307
            ],
            [
              -122.23679379627094,
              44.17997897453657
            ],
            [
              -122.23567914645169,
              44.180349280847324
            ],
            [
              -122.23451941506947,
              44.18063916852097
            ],
            [
              -122.23332577522191,
              44.18084584462403
            ],
            [
              -122.23210972712411,
              44.18096731791593
            ],
            [
              -122.23088298717039,
              44.181002418057936
            ],
            [
              -122.2296573748995,
              44.180950806902786
            ],
            [
              -122.2284446989598,
              44.180812981755615
            ],
            [
              -122.22725664318047,
              44.18059027057456
            ],
            [
              -122.22610465385374,
              44.18028481915777
            ],
            [
              -122.22499982932155,
              44.17989957044082
            ],
            [
              -122.22395281293647,
              44.179438236105824
            ],
            [
              -122.222973690434,
              44.17890526077721
            ],
            [
              -122.2220718927094,
              44.17830577915124
            ],
            [
              -122.22125610493887,
              44.177645566474865
            ],
            [
              -122.22053418292238,
              44.17693098285343
            ],
            [
              -122.21991307745444,
              44.1761689119265
            ],
            [
              -122.21939876744979,
              44.175366694505136
            ],
            [
              -122.21899620246626,
              44.17453205781233
            ],
            [
              -122.21870925517327,
              44.173673041010765
            ],
            [
              -122.21854068421963,
              44.172797917736844
            ],
            [
              -122.21849210785118,
              44.171915116389016
            ]
          ]
        ]
      }
    },
    {
      "type": "Feature",
      "properties": {
        "name": "aoi_3000m",
        "fire": "Holiday Farm Fire",
        "county": "Lane County",
        "buffer_m": 3000,
        "buffer_km": 3.0
      },
      "geometry": {
        "type": "Polygon",
        "coordinates": [
          [
            [
              -122.19347649063207,
              44.17174124132357
            ],
            [
              -122.19369324270437,
              44.16909536390713
            ],
            [
              -122.19426922392982,
              44.166477515140585
            ],
            [
              -122.19519884148959,
              44.163912900674916
            ],
            [
              -122.19647310075135,
              44.1614262104245
            ],
            [
              -122.19807969350002,
              44.15904138112608
            ],
            [
              -122.20000311786774,
              44.156781366255686
            ],
            [
              -122.20222482875481,
              44.15466791550227
            ],
            [
              -122.20472341725015,
              44.15272136590135
            ],
            [
              -122.20747481729175,
              44.15096044661764
            ],
            [
              -122.21045253755919,
              44.149402099231835
            ],
            [
              -122.21362791636004,
              44.14806131523734
            ],
            [
              -122.21697039706527,
              44.146950992286754
            ],
            [
              -122.22044782146381,
              44.146081810548786
            ],
            [
              -122.22402673824641,
              44.14546213034464
            ],
            [
              -122.22767272369477,
              44.14509791203102
            ],
            [
              -122.23135071154367,
              44.14499265888582
            ],
            [
              -122.23502532890254,
              44.145147383536
            ],
            [
              -122.23866123506994,
              44.14556059824447
            ],
            [
              -122.24222346004824,
              44.146228329147824
            ],
            [
              -122.24567773956885,
              44.147144154311576
            ],
            [
              -122.24899084346855,
              44.148299265244454
            ],
            [
              -122.2521308943159,
              44.149682551292
            ],
            [
              -122.2550676732729,
              44.15128070611351
            ],
            [
              -122.25777291028969,
              44.15307835523663
            ],
            [
              -122.26022055586954,
              44.155058203484394
            ],
            [
              -122.26238703180587,
              44.1572012008786
            ],
            [
              -122.26425145848201,
              44.1594867254475
            ],
            [
              -122.26579585653592,
              44.16189278120207
            ],
            [
              -122.26700532092613,
              44.164396209398376
            ],
            [
              -122.2678681656873,
              44.166972911073124
            ],
            [
              -122.26837603793547,
              44.16959807872871
            ],
            [
              -122.2685239999689,
              44.1722464349517
            ],
            [
              -122.26831057861061,
              44.1748924756782
            ],
            [
              -122.26773778124836,
              44.17751071576984
            ],
            [
              -122.26681107834702,
              44.180075934537264
            ],
            [
              -122.26553935253025,
              44.18256341884318
            ],
            [
              -122.26393481465433,
              44.184949201435735
            ],
            [
              -122.2620128876195,
              44.1872102922044
            ],
            [
              -122.25979205898366,
              44.18932490011409
            ],
            [
              -122.25729370375336,
              44.19127264366041
            ],
            [
              -122.2545418790262,
              44.19303474779605
            ],
            [
              -122.25156309244292,
              44.194594225407066
            ],
            [
              -122.24838604667373,
              44.195936041566114
            ],
            [
              -122.24504136240824,
              44.19704725895508
            ],
            [
              -122.24156128253907,
              44.19791716303244
            ],
            [
              -122.2379793604238,
              44.198537365717854
            ],
            [
              -122.234330135274,
              44.19890188657592
            ],
            [
              -122.23064879785501,
              44.19900721070212
            ],
            [
              -122.22697084977956,
              44.198852322741715
            ],
            [
              -122.22333175974686,
              44.198438716707734
            ],
            [
              -122.2197666201088,
              44.19777038150203
            ],
            [
              -122.21630980714279,
              44.196853762282124
            ],
            [
              -122.21299464837097,
              44.19569769805443
            ],
            [
              -122.20985310019232,
              44.19431333610806
            ],
            [
              -122.20691543898634,
              44.19271402412995
            ],
            [
              -122.20420996870709,
              44.190915181061314
            ],
            [
              -122.20176274781535,
              44.188934147961795
            ],
            [
              -122.19959733819697,
              44.18679002034279
            ],
            [
              -122.19773457849051,
              44.18450346360992
            ],
            [
              -122.19619238399726,
              44.182096513417626
            ],
            [
              -122.19498557507703,
              44.179592362882595
            ],
            [
              -122.19412573564699,
              44.177015138727135
            ],
            [
              -122.19362110309798,
              44.17438966852745
            ],
            [
              -122.19347649063207,
              44.17174124132357
            ]
          ]
        ]
      }
    },
    {
      "type": "Feature",
      "properties": {
        "name": "aoi_5000m",
        "fire": "Holiday Farm Fire",
        "county": "Lane County",
        "buffer_m": 5000,
        "buffer_km": 5.0
      },
      "geometry": {
        "type": "Polygon",
        "coordinates": [
          [
            [
              -122.16846110209197,
              44.17156188924476
            ],
            [
              -122.16882420531218,
              44.167152185932146
            ],
            [
              -122.16978594124073,
              44.16278932358805
            ],
            [
              -122.17133692067596,
              44.158515303176
            ],
            [
              -122.17346209054544,
              44.154371261570056
            ],
            [
              -122.17614088333058,
              44.15039707632236
            ],
            [
              -122.17934741900609,
              44.14663098284735
            ],
            [
              -122.18305075740234,
              44.1431092076618
            ],
            [
              -122.18721519844222,
              44.1398656211565
            ],
            [
              -122.19180062727548,
              44.1369314131797
            ],
            [
              -122.19676290093727,
              44.13433479448915
            ],
            [
              -122.20205427279622,
              44.13210072687763
            ],
            [
              -122.20762385073058,
              44.13025068450232
            ],
            [
              -122.21341808468462,
              44.128802448650646
            ],
            [
              -122.21938127900744,
              44.12776993785902
            ],
            [
              -122.22545612477032,
              44.127163074969495
            ],
            [
              -122.23158424709061,
              44.126987692361915
            ],
            [
              -122.23770676236668,
              44.12724547624488
            ],
            [
              -122.24376484024586,
              44.12793395052426
            ],
            [
              -122.2497002651082,
              44.12904650040061
            ],
            [
              -122.25545599185244,
              44.130572435477596
            ],
            [
              -122.26097669081688,
              44.13249709179652
            ],
            [
              -122.26620927675731,
              44.134801971848795
            ],
            [
              -122.27110341693587,
              44.13746492126449
            ],
            [
              -122.27561201354833,
              44.14046034053
            ],
            [
              -122.27969165593254,
              44.143759429758695
            ],
            [
              -122.28330303825602,
              44.14733046422448
            ],
            [
              -122.28641133867623,
              44.15113909807434
            ],
            [
              -122.28898655629902,
              44.15514869336442
            ],
            [
              -122.2910038026303,
              44.1593206713171
            ],
            [
              -122.29244354461873,
              44.16361488247738
            ],
            [
              -122.29329179682139,
              44.16798999225682
            ],
            [
              -122.29354026068773,
              44.172403878195304
            ],
            [
              -122.29318640944464,
              44.17681403514643
            ],
            [
              -122.2922335175753,
              44.18117798450342
            ],
            [
              -122.29069063441011,
              44.185453683529616
            ],
            [
              -122.28857250188693,
              44.189599930843016
            ],
            [
              -122.28589941708323,
              44.19357676412768
            ],
            [
              -122.28269704066956,
              44.1973458462069
            ],
            [
              -122.27899615297672,
              44.2008708357137
            ],
            [
              -122.27483235990167,
              44.20411773873296
            ],
            [
              -122.27024575139261,
              44.207055237964646
            ],
            [
              -122.26528051574756,
              44.20965499616989
            ],
            [
              -122.25998451342434,
              44.21189193090591
            ],
            [
              -122.25440881449019,
              44.213744457833286
            ],
            [
              -122.24860720422733,
              44.2151947001844
            ],
            [
              -122.24263566175429,
              44.216228662313824
            ],
            [
              -122.23655181681522,
              44.21683636560523
            ],
            [
              -122.23041439012711,
              44.217011945382424
            ],
            [
              -122.2242826228543,
              44.21675370785966
            ],
            [
              -122.21821570089965,
              44.216064146564236
            ],
            [
              -122.2122721797569,
              44.21494991806921
            ],
            [
              -122.20650941566338,
              44.213421777279535
            ],
            [
              -122.20098300872237,
              44.21149447291854
            ],
            [
              -122.19574626353219,
              44.20918660425785
            ],
            [
              -122.19084967266758,
              44.20652044051819
            ],
            [
              -122.18634042811028,
              44.20352170473798
            ],
            [
              -122.18226196542149,
              44.200219324255684
            ],
            [
              -122.1786535450975,
              44.19664515027838
            ],
            [
              -122.17554987515197,
              44.19283364930855
            ],
            [
              -122.17298077853194,
              44.18882156947161
            ],
            [
              -122.17097090850459,
              44.184647585024614
            ],
            [
              -122.16953951465432,
              44.18035192253075
            ],
            [
              -122.16870026161048,
              44.17597597235211
            ],
            [
              -122.16846110209197,
              44.17156188924476
            ]
          ]
        ]
      }
    }
  ]
}